start=new Date('2022-06-13T00:00:00.000Z').valueOf();
sats=[{"EPHEMERIS_TYPE":"0","ECCENTRICITY":"0.00015800","NORAD_CAT_ID":"44720","SEMIMAJOR_AXIS":"6925.355","OBJECT_ID":"2019-074H","LAUNCH_DATE":"2019-11-11","PERIAPSIS":"546.125","TLE_LINE1":"1 44720U 19074H   22163.82390931  .00000135  00000-0  27958-4 0  9991","RCS_SIZE":"LARGE","OBJECT_NAME":"STARLINK-1014","TIME_SYSTEM":"UTC","REV_AT_EPOCH":"14288","REF_FRAME":"TEME","INCLINATION":"53.0537","CLASSIFICATION_TYPE":"U","OBJECT_TYPE":"PAYLOAD","ARG_OF_PERICENTER":"56.8124","MEAN_MOTION_DOT":"0.00000135","MEAN_MOTION_DDOT":"0.0000000000000","CENTER_NAME":"EARTH","BSTAR":"0.00002795800000","PERIOD":"95.592","MEAN_ANOMALY":"303.3016","MEAN_ELEMENT_THEORY":"SGP4","FILE":"3493781","TLE_LINE2":"2 44720  53.0537 198.2114 0001580  56.8124 303.3016 15.06398030142882","MEAN_MOTION":"15.06398030","APOAPSIS":"548.314","RA_OF_ASC_NODE":"198.2114","SITE":"AFETR","COUNTRY_CODE":"US","GP_ID":"206012103","DECAY_DATE":null,"EPOCH":"2022-06-12T19:46:25.764384","ELEMENT_SET_NO":"999"},{"TLE_LINE2":"2 44721  53.0539 199.7685 0001609  63.2978 296.8176 15.06395303142990","FILE":"3492822","MEAN_ELEMENT_THEORY":"SGP4","PERIOD":"95.592","MEAN_ANOMALY":"296.8176","BSTAR":"-0.00000798460000","CENTER_NAME":"EARTH","MEAN_MOTION_DDOT":"0.0000000000000","RA_OF_ASC_NODE":"199.7685","APOAPSIS":"548.342","MEAN_MOTION":"15.06395303","COUNTRY_CODE":"US","GP_ID":"205945944","SITE":"AFETR","EPOCH":"2022-06-12T11:34:10.387488","ELEMENT_SET_NO":"999","DECAY_DATE":null,"NORAD_CAT_ID":"44721","ECCENTRICITY":"0.00016090","EPHEMERIS_TYPE":"0","TLE_LINE1":"1 44721U 19074J   22163.48206467 -.00000400  00000-0 -79846-5 0  9995","OBJECT_ID":"2019-074J","LAUNCH_DATE":"2019-11-11","PERIAPSIS":"546.114","SEMIMAJOR_AXIS":"6925.363","INCLINATION":"53.0539","REF_FRAME":"TEME","TIME_SYSTEM":"UTC","REV_AT_EPOCH":"14299","OBJECT_NAME":"STARLINK-1015","RCS_SIZE":"LARGE","MEAN_MOTION_DOT":"-0.00000400","ARG_OF_PERICENTER":"63.2978","CLASSIFICATION_TYPE":"U","OBJECT_TYPE":"PAYLOAD"},{"OBJECT_NAME":"STARLINK-1016","RCS_SIZE":"LARGE","REF_FRAME":"TEME","TIME_SYSTEM":"UTC","REV_AT_EPOCH":"14288","INCLINATION":"53.0543","OBJECT_TYPE":"PAYLOAD","CLASSIFICATION_TYPE":"U","MEAN_MOTION_DOT":"0.00046733","ARG_OF_PERICENTER":"73.7912","EPHEMERIS_TYPE":"0","ECCENTRICITY":"0.00029660","NORAD_CAT_ID":"44722","SEMIMAJOR_AXIS":"6923.825","OBJECT_ID":"2019-074K","LAUNCH_DATE":"2019-11-11","PERIAPSIS":"543.637","TLE_LINE1":"1 44722U 19074K   22163.81665907  .00046733  00000-0  30936-2 0  9992","SITE":"AFETR","GP_ID":"206012604","COUNTRY_CODE":"US","DECAY_DATE":null,"ELEMENT_SET_NO":"999","EPOCH":"2022-06-12T19:35:59.343648","CENTER_NAME":"EARTH","MEAN_MOTION_DDOT":"0.0000000000000","PERIOD":"95.561","BSTAR":"0.00309360000000","MEAN_ANOMALY":"286.3403","FILE":"3493781","MEAN_ELEMENT_THEORY":"SGP4","TLE_LINE2":"2 44722  53.0543 198.2561 0002966  73.7912 286.3403 15.06897102142883","MEAN_MOTION":"15.06897102","RA_OF_ASC_NODE":"198.2561","APOAPSIS":"547.744"},{"SITE":"AFETR","GP_ID":"206012850","COUNTRY_CODE":"US","DECAY_DATE":null,"EPOCH":"2022-06-12T19:58:24.882816","ELEMENT_SET_NO":"999","PERIOD":"95.592","BSTAR":"0.00010067000000","MEAN_ANOMALY":"297.4304","MEAN_MOTION_DDOT":"0.0000000000000","CENTER_NAME":"EARTH","TLE_LINE2":"2 44723  53.0538 198.2020 0001468  62.6834 297.4304 15.06397209142880","MEAN_ELEMENT_THEORY":"SGP4","FILE":"3493781","MEAN_MOTION":"15.06397209","APOAPSIS":"548.239","RA_OF_ASC_NODE":"198.2020","RCS_SIZE":"LARGE","OBJECT_NAME":"STARLINK-1017","INCLINATION":"53.0538","TIME_SYSTEM":"UTC","REV_AT_EPOCH":"14288","REF_FRAME":"TEME","ARG_OF_PERICENTER":"62.6834","MEAN_MOTION_DOT":"0.00001218","CLASSIFICATION_TYPE":"U","OBJECT_TYPE":"PAYLOAD","ECCENTRICITY":"0.00014680","EPHEMERIS_TYPE":"0","NORAD_CAT_ID":"44723","SEMIMAJOR_AXIS":"6925.357","TLE_LINE1":"1 44723U 19074L   22163.83223244  .00001218  00000-0  10067-3 0  9992","PERIAPSIS":"546.205","LAUNCH_DATE":"2019-11-11","OBJECT_ID":"2019-074L"},{"INCLINATION":"53.0548","REV_AT_EPOCH":"14284","TIME_SYSTEM":"UTC","REF_FRAME":"TEME","RCS_SIZE":"LARGE","OBJECT_NAME":"STARLINK-1019","ARG_OF_PERICENTER":"54.0868","MEAN_MOTION_DOT":"-0.00000417","OBJECT_TYPE":"PAYLOAD","CLASSIFICATION_TYPE":"U","NORAD_CAT_ID":"44724","ECCENTRICITY":"0.00017250","EPHEMERIS_TYPE":"0","TLE_LINE1":"1 44724U 19074M   22163.59632161 -.00000417  00000-0 -90769-5 0  9999","LAUNCH_DATE":"2019-11-11","PERIAPSIS":"546.025","OBJECT_ID":"2019-074M","SEMIMAJOR_AXIS":"6925.355","GP_ID":"206011603","COUNTRY_CODE":"US","SITE":"AFETR","ELEMENT_SET_NO":"999","EPOCH":"2022-06-12T14:18:42.187104","DECAY_DATE":null,"TLE_LINE2":"2 44724  53.0548 199.2633 0001725  54.0868 306.0281 15.06397939142848","MEAN_ELEMENT_THEORY":"SGP4","FILE":"3493781","PERIOD":"95.592","MEAN_ANOMALY":"306.0281","BSTAR":"-0.00000907690000","MEAN_MOTION_DDOT":"0.0000000000000","CENTER_NAME":"EARTH","APOAPSIS":"548.414","RA_OF_ASC_NODE":"199.2633","MEAN_MOTION":"15.06397939"},{"BSTAR":"0.00004007500000","PERIOD":"95.593","MEAN_ANOMALY":"293.4395","MEAN_MOTION_DDOT":"0.0000000000000","CENTER_NAME":"EARTH","TLE_LINE2":"2 44725  53.0544 218.0262 0001417  66.6742 293.4395 15.06392722142605","MEAN_ELEMENT_THEORY":"SGP4","FILE":"3493781","MEAN_MOTION":"15.06392722","APOAPSIS":"548.217","RA_OF_ASC_NODE":"218.0262","SITE":"AFETR","GP_ID":"206011853","COUNTRY_CODE":"US","DECAY_DATE":null,"EPOCH":"2022-06-12T20:48:50.563296","ELEMENT_SET_NO":"999","ECCENTRICITY":"0.00014170","EPHEMERIS_TYPE":"0","NORAD_CAT_ID":"44725","SEMIMAJOR_AXIS":"6925.371","TLE_LINE1":"1 44725U 19074N   22163.86725189  .00000315  00000-0  40075-4 0  9992","PERIAPSIS":"546.255","LAUNCH_DATE":"2019-11-11","OBJECT_ID":"2019-074N","RCS_SIZE":"LARGE","OBJECT_NAME":"STARLINK-1020","INCLINATION":"53.0544","TIME_SYSTEM":"UTC","REV_AT_EPOCH":"14260","REF_FRAME":"TEME","ARG_OF_PERICENTER":"66.6742","MEAN_MOTION_DOT":"0.00000315","CLASSIFICATION_TYPE":"U","OBJECT_TYPE":"PAYLOAD"},{"ELEMENT_SET_NO":"999","EPOCH":"2022-06-12T19:00:01.222848","DECAY_DATE":null,"GP_ID":"206013105","COUNTRY_CODE":"US","SITE":"AFETR","APOAPSIS":"548.266","RA_OF_ASC_NODE":"198.3708","MEAN_MOTION":"15.06397210","MEAN_ELEMENT_THEORY":"SGP4","FILE":"3493781","TLE_LINE2":"2 44726  53.0527 198.3708 0001507  59.6730 300.4407 15.06397210142870","MEAN_MOTION_DDOT":"0.0000000000000","CENTER_NAME":"EARTH","PERIOD":"95.592","BSTAR":"0.00010741000000","MEAN_ANOMALY":"300.4407","CLASSIFICATION_TYPE":"U","OBJECT_TYPE":"PAYLOAD","ARG_OF_PERICENTER":"59.6730","MEAN_MOTION_DOT":"0.00001319","REV_AT_EPOCH":"14287","TIME_SYSTEM":"UTC","REF_FRAME":"TEME","INCLINATION":"53.0527","RCS_SIZE":"LARGE","OBJECT_NAME":"STARLINK-1021","LAUNCH_DATE":"2019-11-11","OBJECT_ID":"2019-074P","PERIAPSIS":"546.178","TLE_LINE1":"1 44726U 19074P   22163.79168082  .00001319  00000-0  10741-3 0  9999","SEMIMAJOR_AXIS":"6925.357","NORAD_CAT_ID":"44726","EPHEMERIS_TYPE":"0","ECCENTRICITY":"0.00015070"},{"PERIOD":"95.592","MEAN_ANOMALY":"294.6006","BSTAR":"0.00003336400000","CENTER_NAME":"EARTH","MEAN_MOTION_DDOT":"0.0000000000000","TLE_LINE2":"2 44727  53.0545 237.9199 0001430  65.5132 294.6006 15.06397051142346","FILE":"3493781","MEAN_ELEMENT_THEORY":"SGP4","MEAN_MOTION":"15.06397051","RA_OF_ASC_NODE":"237.9199","APOAPSIS":"548.213","SITE":"AFETR","GP_ID":"206013351","COUNTRY_CODE":"US","DECAY_DATE":null,"EPOCH":"2022-06-12T21:27:16.017696","ELEMENT_SET_NO":"999","ECCENTRICITY":"0.00014300","EPHEMERIS_TYPE":"0","NORAD_CAT_ID":"44727","SEMIMAJOR_AXIS":"6925.358","TLE_LINE1":"1 44727U 19074Q   22163.89393539  .00000215  00000-0  33364-4 0  9999","LAUNCH_DATE":"2019-11-11","PERIAPSIS":"546.232","OBJECT_ID":"2019-074Q","OBJECT_NAME":"STARLINK-1022","RCS_SIZE":"LARGE","INCLINATION":"53.0545","REF_FRAME":"TEME","TIME_SYSTEM":"UTC","REV_AT_EPOCH":"14234","MEAN_MOTION_DOT":"0.00000215","ARG_OF_PERICENTER":"65.5132","OBJECT_TYPE":"PAYLOAD","CLASSIFICATION_TYPE":"U"},{"DECAY_DATE":null,"ELEMENT_SET_NO":"999","EPOCH":"2022-06-12T09:42:55.994400","SITE":"AFETR","COUNTRY_CODE":"US","GP_ID":"205976741","MEAN_MOTION":"15.13766401","APOAPSIS":"525.334","RA_OF_ASC_NODE":"210.0057","BSTAR":"0.00052234000000","PERIOD":"95.127","MEAN_ANOMALY":"341.1978","MEAN_MOTION_DDOT":"0.0000000000000","CENTER_NAME":"EARTH","TLE_LINE2":"2 44729  53.0011 210.0057 0000878  18.9046 341.1978 15.13766401142648","MEAN_ELEMENT_THEORY":"SGP4","FILE":"3493305","ARG_OF_PERICENTER":"18.9046","MEAN_MOTION_DOT":"0.00009241","OBJECT_TYPE":"PAYLOAD","CLASSIFICATION_TYPE":"U","RCS_SIZE":"LARGE","OBJECT_NAME":"STARLINK-1024","INCLINATION":"53.0011","TIME_SYSTEM":"UTC","REV_AT_EPOCH":"14264","REF_FRAME":"TEME","SEMIMAJOR_AXIS":"6902.863","TLE_LINE1":"1 44729U 19074S   22163.40481475  .00009241  00000-0  52234-3 0  9999","PERIAPSIS":"524.122","LAUNCH_DATE":"2019-11-11","OBJECT_ID":"2019-074S","ECCENTRICITY":"0.00008780","EPHEMERIS_TYPE":"0","NORAD_CAT_ID":"44729"},{"DECAY_DATE":null,"EPOCH":"2022-06-12T19:15:56.693664","ELEMENT_SET_NO":"999","SITE":"AFETR","GP_ID":"206012354","COUNTRY_CODE":"US","MEAN_MOTION":"15.06395721","RA_OF_ASC_NODE":"198.3244","APOAPSIS":"548.276","CENTER_NAME":"EARTH","MEAN_MOTION_DDOT":"0.0000000000000","PERIOD":"95.592","BSTAR":"0.00012128000000","MEAN_ANOMALY":"299.4754","FILE":"3493781","MEAN_ELEMENT_THEORY":"SGP4","TLE_LINE2":"2 44731  53.0557 198.3244 0001515  60.6386 299.4754 15.06395721142879","CLASSIFICATION_TYPE":"U","OBJECT_TYPE":"PAYLOAD","MEAN_MOTION_DOT":"0.00001525","ARG_OF_PERICENTER":"60.6386","OBJECT_NAME":"STARLINK-1026","RCS_SIZE":"LARGE","REF_FRAME":"TEME","REV_AT_EPOCH":"14287","TIME_SYSTEM":"UTC","INCLINATION":"53.0557","SEMIMAJOR_AXIS":"6925.362","LAUNCH_DATE":"2019-11-11","PERIAPSIS":"546.177","OBJECT_ID":"2019-074U","TLE_LINE1":"1 44731U 19074U   22163.80273951  .00001525  00000-0  12128-3 0  9999","EPHEMERIS_TYPE":"0","ECCENTRICITY":"0.00015150","NORAD_CAT_ID":"44731"}];
